STARLINK-1055
1 24760C 19074AZ  21325.13610582  .00004005  00000-0  26841-3 0  3257
2 24760  53.0526  72.6199 0001449  85.3132 214.4628 15.06386828    13
